KUIPER-00177            
1 67766U 26030C   26060.42298188  .00026364  00000+0  74652-3 0  9996
2 67766  51.8821 258.9175 0000425  34.5700 325.5314 15.36099041  3820
KUIPER-00178            
1 67767U 26030D   26060.43432800  .00035686  00000+0  10373-2 0  9995
2 67767  51.8819 258.9915 0005567  23.2708 336.8529 15.35111394  3823
KUIPER-00180            
1 67768U 26030E   26060.52219593 -.00012631  00000+0 -38546-3 0  9998
2 67768  51.8809 258.8178 0015013  46.0129 314.2091 15.32375380  3839
KUIPER-00197            
1 67769U 26030F   26060.48986995  .00026628  00000+0  75670-3 0  9999
2 67769  51.8824 258.6150 0001103  71.9470 288.1637 15.35981779  3839
KUIPER-00198            
1 67770U 26030G   26060.42874365  .00037441  00000+0  10703-2 0  9992
2 67770  51.8798 258.9517 0002533  28.9617 331.1509 15.35620930  3829
KUIPER-00199            
1 67771U 26030H   26060.51135538  .00030472  00000+0  91885-3 0  9993
2 67771  51.8797 258.7482 0010092  37.9570 322.2125 15.33998902  3836
KUIPER-00200            
1 67772U 26030J   26060.41815303  .00041401  00000+0  11446-2 0  9996
2 67772  51.8807 258.8839 0001984 196.6253 163.4669 15.36618169  3821
KUIPER-00203            
1 67773U 26030K   26060.50003471 -.00224604  00000+0 -79798-2 0  9996
2 67773  51.8800 258.8537 0012032  40.1400 224.2341 15.29349892  2393
KUIPER-00205            
1 67774U 26030L   26060.42551178  .00038075  00000+0  10762-2 0  9999
2 67774  51.8800 258.9300 0001974 354.1612   5.9351 15.35967438  3822
KUIPER-00208            
1 67775U 26030M   26060.45560111  .00022872  00000+0  71806-3 0  9995
2 67775  51.8826 259.1291 0014306  38.4565 321.7437 15.32830856  3829
KUIPER-00209            
1 67776U 26030N   26060.50003471  .00063586  00000+0  20553-2 0  9992
2 67776  51.8822 258.9294 0013022  42.2526 194.8608 15.31409943  3221
KUIPER-00213            
1 67777U 26030P   26060.52093848  .00031568  00000+0  99492-3 0  9996
2 67777  51.8800 258.8087 0014142  40.0523 320.1502 15.32528073  3835
KUIPER-00214            
1 67778U 26030Q   26060.42018189  .00035275  00000+0  98480-3 0  9996
2 67778  51.8836 258.9001 0001487 189.6379 170.4579 15.36390867  3820
KUIPER-00215            
1 67779U 26030R   26060.44483366  .00023798  00000+0  71947-3 0  9998
2 67779  51.8829 259.0601 0009690  36.8926 323.2725 15.34058558  3823
KUIPER-00218            
1 67780U 26030S   26060.43711936  .00018652  00000+0  55367-3 0  9997
2 67780  51.8820 259.0085 0005932  29.1147 331.0169 15.34822948  3828
KUIPER-00220            
1 67781U 26030T   26060.44213517  .00022337  00000+0  67017-3 0  9991
2 67781  51.8796 259.0364 0008051  34.1795 325.9708 15.34350953  3824
KUIPER-00222            
1 67782U 26030U   26060.52417597  .00030671  00000+0  96862-3 0  9995
2 67782  51.8805 258.8298 0017311  39.2881 320.9356 15.32430898  3830
KUIPER-00223            
1 67783U 26030V   26060.51275975  .00020906  00000+0  63724-3 0  9998
2 67783  51.8814 258.7620 0012171  37.2199 322.9628 15.33854793  3837
KUIPER-00225            
1 67784U 26030W   26060.43003473  .00024617  00000+0  71160-3 0  9998
2 67784  51.8796 258.9593 0003615  20.4405 339.6725 15.35488161  3821
KUIPER-00226            
1 67785U 26030X   26060.46762955  .00038061  00000+0  12338-2 0  9998
2 67785  51.8820 259.1986 0019976  47.7575 312.5100 15.31439268  3823
KUIPER-00259            
1 67786U 26030Y   26060.43889375  .00033937  00000+0  10004-2 0  9997
2 67786  51.8799 259.0161 0007827  26.5049 333.6336 15.34680052  3823
KUIPER-00260            
1 67787U 26030Z   26060.42381759  .00026536  00000+0  75272-3 0  9996
2 67787  51.8788 258.9181 0000870  84.8936 275.2150 15.36040962  3732
KUIPER-00262            
1 67788U 26030AA  26060.42110862  .00042302  00000+0  11791-2 0  9996
2 67788  51.8802 258.9032 0000923 153.1606 206.9428 15.36354352  3828
KUIPER-00266            
1 67789U 26030AB  26060.47123630  .00013753  00000+0  46023-3 0  9994
2 67789  51.8819 259.2197 0022348  48.2179 312.0710 15.31024337  3822
KUIPER-00268            
1 67790U 26030AC  26060.42778464  .00020446  00000+0  59108-3 0  9997
2 67790  51.8833 258.9501 0001879  33.0066 327.1037 15.35603610  3828
KUIPER-00270            
1 67791U 26030AD  26060.44321278  .00021813  00000+0  65646-3 0  9990
2 67791  51.8794 259.0431 0009902  33.5018 326.6592 15.34253650  3820
KUIPER-00274            
1 67792U 26030AE  26060.52731076  .00032911  00000+0  10624-2 0  9997
2 67792  51.8829 258.8563 0017370  44.9304 315.3082 15.31690738  3834
KUIPER-00275            
1 67793U 26030AF  26060.44078859  .00022399  00000+0  67239-3 0  9996
2 67793  51.8826 259.0349 0008689  31.1425 329.0073 15.34327813  3827
KUIPER-00276            
1 67794U 26030AG  26060.53096001  .00000442  00000+0  26419-4 0  9997
2 67794  51.8822 258.8771 0017958  42.7209 317.5167 15.31503201  3838
KUIPER-00279            
1 67795U 26030AH  26060.43572618  .00023926  00000+0  70321-3 0  9992
2 67795  51.8785 258.9935 0006098  26.9578 333.1724 15.34972688  3820
